STARLINK-1017           
1 44723U 19074L   26068.54344794  .00044330  00000+0  18002-2 0  9999
2 44723  53.0556 172.1395 0001284  53.2694 306.8420 15.24173070348949
YAOGAN-35 05A           
1 53760U 22109A   26066.58678890  .00000206  00000+0  10143-4 0  9996
2 53760  35.0054 257.8287 0007542 166.4261 193.6657 15.22860926195118
