[{"OBJECT_NAME":"STARLINK-1017","OBJECT_ID":"2019-074L","EPOCH":"2026-03-09T13:02:33.902016","MEAN_MOTION":15.2417307,"ECCENTRICITY":0.00012842,"INCLINATION":53.0556,"RA_OF_ASC_NODE":172.1395,"ARG_OF_PERICENTER":53.2694,"MEAN_ANOMALY":306.842,"EPHEMERIS_TYPE":0,"CLASSIFICATION_TYPE":"U","NORAD_CAT_ID":44723,"ELEMENT_SET_NO":999,"REV_AT_EPOCH":34894,"BSTAR":0.0018001608,"MEAN_MOTION_DOT":0.0004433,"MEAN_MOTION_DDOT":0},{"OBJECT_NAME":"YAOGAN-35 05A","OBJECT_ID":"2022-109A","EPOCH":"2026-03-07T14:04:58.560960","MEAN_MOTION":15.22860926,"ECCENTRICITY":0.0007542,"INCLINATION":35.0054,"RA_OF_ASC_NODE":257.8287,"ARG_OF_PERICENTER":166.4261,"MEAN_ANOMALY":193.6657,"EPHEMERIS_TYPE":0,"CLASSIFICATION_TYPE":"U","NORAD_CAT_ID":53760,"ELEMENT_SET_NO":999,"REV_AT_EPOCH":19511,"BSTAR":1.0143e-5,"MEAN_MOTION_DOT":2.06e-6,"MEAN_MOTION_DDOT":0}]
